{
  "norad_id": 48864,
  "name": "TIANQI-14",
  "history": [
    {
      "epoch": "2026-04-14T11:01:09.368544Z",
      "apogee_km": 530.1700906112392,
      "perigee_km": 524.4652183030057,
      "latitude_deg": 1.0123598455835084e-05,
      "longitude_deg": 105.34992051491231,
      "height_km": 527.778319633313,
      "semi_major_axis_km": 6905.454654457122,
      "eccentricity": 0.00041307,
      "inclination_deg": 34.9982,
      "raan_deg": 113.2742,
      "arg_perigee_deg": 122.9898,
      "mean_anomaly_deg": 237.1211,
      "mean_motion_rev_day": 15.12914361
    },
    {
      "epoch": "2026-04-15T17:06:37.819008Z",
      "apogee_km": 530.2234901016518,
      "perigee_km": 524.3566392674957,
      "latitude_deg": 2.6711999597362676e-05,
      "longitude_deg": 4.981299560112643,
      "height_km": 528.2996423322686,
      "semi_major_axis_km": 6905.427064684573,
      "eccentricity": 0.0004248,
      "inclination_deg": 34.9983,
      "raan_deg": 105.5099,
      "arg_perigee_deg": 135.7581,
      "mean_anomaly_deg": 224.3471,
      "mean_motion_rev_day": 15.12923428
    },
    {
      "epoch": "2026-04-16T08:56:52.588896Z",
      "apogee_km": 530.2728159085555,
      "perigee_km": 524.2789175402386,
      "latitude_deg": -1.3783220428931362e-05,
      "longitude_deg": 122.68308173253864,
      "height_km": 528.5594939917793,
      "semi_major_axis_km": 6905.412866724397,
      "eccentricity": 0.000434,
      "inclination_deg": 34.9983,
      "raan_deg": 101.4237,
      "arg_perigee_deg": 142.4241,
      "mean_anomaly_deg": 217.6774,
      "mean_motion_rev_day": 15.12928094
    },
    {
      "epoch": "2026-04-17T22:57:27.243648Z",
      "apogee_km": 530.3718444069518,
      "perigee_km": 524.1024552163371,
      "latitude_deg": 2.476656658419644e-05,
      "longitude_deg": -98.82975590441589,
      "height_km": 529.056260841319,
      "semi_major_axis_km": 6905.374149811644,
      "eccentricity": 0.00045395,
      "inclination_deg": 34.9986,
      "raan_deg": 91.6162,
      "arg_perigee_deg": 158.1598,
      "mean_anomaly_deg": 201.9308,
      "mean_motion_rev_day": 15.12940818
    },
    {
      "epoch": "2026-04-18T14:47:41.247168Z",
      "apogee_km": 530.3984056253057,
      "perigee_km": 524.0330514801253,
      "latitude_deg": 2.255159597357859e-05,
      "longitude_deg": 18.875381349072466,
      "height_km": 529.1867359017048,
      "semi_major_axis_km": 6905.352728552715,
      "eccentricity": 0.0004609,
      "inclination_deg": 34.9987,
      "raan_deg": 87.5301,
      "arg_perigee_deg": 164.1171,
      "mean_anomaly_deg": 195.9686,
      "mean_motion_rev_day": 15.12947858
    },
    {
      "epoch": "2026-04-19T14:33:02.039040Z",
      "apogee_km": 530.4840321502397,
      "perigee_km": 523.9060128655974,
      "latitude_deg": -4.1383265891591175e-05,
      "longitude_deg": 15.433341939189948,
      "height_km": 529.3755584530702,
      "semi_major_axis_km": 6905.332022507918,
      "eccentricity": 0.0004763,
      "inclination_deg": 34.999,
      "raan_deg": 81.4004,
      "arg_perigee_deg": 173.8331,
      "mean_anomaly_deg": 186.2439,
      "mean_motion_rev_day": 15.12954663
    },
    {
      "epoch": "2026-04-20T14:18:22.258080Z",
      "apogee_km": 530.5616429008551,
      "perigee_km": 523.778835811926,
      "latitude_deg": -3.272962880985412e-05,
      "longitude_deg": 11.994297918811471,
      "height_km": 529.4693577982437,
      "semi_major_axis_km": 6905.307239356391,
      "eccentricity": 0.00049113,
      "inclination_deg": 34.9993,
      "raan_deg": 75.2712,
      "arg_perigee_deg": 182.5986,
      "mean_anomaly_deg": 177.47,
      "mean_motion_rev_day": 15.12962808
    },
    {
      "epoch": "2026-04-21T14:03:41.848128Z",
      "apogee_km": 530.6233559115899,
      "perigee_km": 523.6531710606268,
      "latitude_deg": 1.1928912139963463e-05,
      "longitude_deg": 8.557932398329047,
      "height_km": 529.4712076390826,
      "semi_major_axis_km": 6905.275263486108,
      "eccentricity": 0.0005047,
      "inclination_deg": 34.9996,
      "raan_deg": 69.142,
      "arg_perigee_deg": 190.992,
      "mean_anomaly_deg": 169.0682,
      "mean_motion_rev_day": 15.12973317
    },
    {
      "epoch": "2026-04-22T13:49:00.880032Z",
      "apogee_km": 530.6949034147456,
      "perigee_km": 523.5258755749728,
      "latitude_deg": -3.528432855800991e-06,
      "longitude_deg": 5.12371340471211,
      "height_km": 529.4091941507644,
      "semi_major_axis_km": 6905.247389494859,
      "eccentricity": 0.0005191,
      "inclination_deg": 34.9998,
      "raan_deg": 63.0127,
      "arg_perigee_deg": 199.1338,
      "mean_anomaly_deg": 160.9179,
      "mean_motion_rev_day": 15.12982478
    },
    {
      "epoch": "2026-04-23T05:39:13.208256Z",
      "apogee_km": 530.762816722141,
      "perigee_km": 523.4116531061354,
      "latitude_deg": 2.7280466908561096e-05,
      "longitude_deg": 122.83569557958032,
      "height_km": 529.3374991961879,
      "semi_major_axis_km": 6905.224234914138,
      "eccentricity": 0.00053229,
      "inclination_deg": 34.9999,
      "raan_deg": 58.9264,
      "arg_perigee_deg": 204.7623,
      "mean_anomaly_deg": 155.2834,
      "mean_motion_rev_day": 15.12990088
    },
    {
      "epoch": "2026-04-24T21:14:42.876672Z",
      "apogee_km": 530.8701453834765,
      "perigee_km": 523.1874579125633,
      "latitude_deg": -1.8400536618343348e-05,
      "longitude_deg": -122.87985804869963,
      "height_km": 528.9637277722987,
      "semi_major_axis_km": 6905.16580164802,
      "eccentricity": 0.0005563,
      "inclination_deg": 35.0001,
      "raan_deg": 48.7105,
      "arg_perigee_deg": 218.1303,
      "mean_anomaly_deg": 141.9015,
      "mean_motion_rev_day": 15.13009293
    },
    {
      "epoch": "2026-04-25T20:59:59.732160Z",
      "apogee_km": 530.9061665111722,
      "perigee_km": 523.053667553123,
      "latitude_deg": -1.7967261675125032e-05,
      "longitude_deg": -126.30535891481277,
      "height_km": 528.6155199123334,
      "semi_major_axis_km": 6905.116917032147,
      "eccentricity": 0.0005686,
      "inclination_deg": 35.0002,
      "raan_deg": 42.5808,
      "arg_perigee_deg": 226.1092,
      "mean_anomaly_deg": 133.915,
      "mean_motion_rev_day": 15.1302536
    },
    {
      "epoch": "2026-04-26T20:45:15.753024Z",
      "apogee_km": 530.924908217321,
      "perigee_km": 522.9521698984145,
      "latitude_deg": 2.0259943665226226e-05,
      "longitude_deg": -129.7273183543292,
      "height_km": 528.2122890149257,
      "semi_major_axis_km": 6905.075539057868,
      "eccentricity": 0.00057731,
      "inclination_deg": 35.0002,
      "raan_deg": 36.4511,
      "arg_perigee_deg": 233.7007,
      "mean_anomaly_deg": 126.3172,
      "mean_motion_rev_day": 15.1303896
    },
    {
      "epoch": "2026-04-27T20:30:30.879648Z",
      "apogee_km": 530.9591940366936,
      "perigee_km": 522.8154083758518,
      "latitude_deg": 3.791624206546573e-05,
      "longitude_deg": -133.14587050532273,
      "height_km": 527.771028667988,
      "semi_major_axis_km": 6905.024301206273,
      "eccentricity": 0.0005897,
      "inclination_deg": 35.0005,
      "raan_deg": 30.3211,
      "arg_perigee_deg": 241.0704,
      "mean_anomaly_deg": 118.9417,
      "mean_motion_rev_day": 15.13055801
    },
    {
      "epoch": "2026-04-28T20:15:45.257184Z",
      "apogee_km": 530.9561617066138,
      "perigee_km": 522.740610094469,
      "latitude_deg": 1.664228152822416e-05,
      "longitude_deg": -136.56084826199944,
      "height_km": 527.2721485775184,
      "semi_major_axis_km": 6904.985385900541,
      "eccentricity": 0.0005949,
      "inclination_deg": 35.0008,
      "raan_deg": 24.1916,
      "arg_perigee_deg": 248.439,
      "mean_anomaly_deg": 111.5688,
      "mean_motion_rev_day": 15.13068592
    },
    {
      "epoch": "2026-04-29T20:00:58.874400Z",
      "apogee_km": 530.9523287757966,
      "perigee_km": 522.656732021177,
      "latitude_deg": 3.6237778120787536e-05,
      "longitude_deg": -139.9724916940761,
      "height_km": 526.7370014759416,
      "semi_major_axis_km": 6904.941530398487,
      "eccentricity": 0.0006007,
      "inclination_deg": 35.0008,
      "raan_deg": 18.0622,
      "arg_perigee_deg": 255.7905,
      "mean_anomaly_deg": 104.214,
      "mean_motion_rev_day": 15.13083007
    },
    {
      "epoch": "2026-04-30T02:21:02.391840Z",
      "apogee_km": 530.9529145071292,
      "perigee_km": 522.6335783490222,
      "latitude_deg": 1.7308133875463305e-05,
      "longitude_deg": 123.11828453304743,
      "height_km": 526.5806413475418,
      "semi_major_axis_km": 6904.930246428075,
      "eccentricity": 0.00060242,
      "inclination_deg": 35.0007,
      "raan_deg": 16.4278,
      "arg_perigee_deg": 257.8844,
      "mean_anomaly_deg": 102.1193,
      "mean_motion_rev_day": 15.13086716
    },
    {
      "epoch": "2026-05-02T01:51:26.890848Z",
      "apogee_km": 530.8998924104744,
      "perigee_km": 522.5201700533717,
      "latitude_deg": 4.564985372858577e-06,
      "longitude_deg": 116.30585013050805,
      "height_km": 525.4342151344947,
      "semi_major_axis_km": 6904.847031231923,
      "eccentricity": 0.0006068,
      "inclination_deg": 35.0007,
      "raan_deg": 4.1685,
      "arg_perigee_deg": 272.6046,
      "mean_anomaly_deg": 87.3971,
      "mean_motion_rev_day": 15.13114069
    },
    {
      "epoch": "2026-05-03T17:26:44.847744Z",
      "apogee_km": 530.8496224799974,
      "perigee_km": 522.4271774471217,
      "latitude_deg": -4.381709402266401e-05,
      "longitude_deg": -129.36187781586833,
      "height_km": 524.4772121187896,
      "semi_major_axis_km": 6904.77539996356,
      "eccentricity": 0.0006099,
      "inclination_deg": 35.0006,
      "raan_deg": 353.9515,
      "arg_perigee_deg": 284.803,
      "mean_anomaly_deg": 75.2005,
      "mean_motion_rev_day": 15.13137615
    }
  ]
}